{
  "type": "FeatureCollection",
  "features": [
    {
      "type": "Feature",
      "properties": {
        "norad_id": 67098,
        "name": "STARLINK-36205",
        "group": "last-30-days",
        "lat": -69.94699337798886,
        "lon": 113.453419261339,
        "alt_km": 360.0173276718406,
        "timestamp": "2025-12-27T18:38:02.207311+00:00",
        "meta_object_name": "STARLINK-36205",
        "meta_object_id": "2025-298Z",
        "meta_epoch": "2025-12-27T12:00:02.000160",
        "meta_mean_motion": 15.7217591,
        "meta_eccentricity": 0.0003318,
        "meta_inclination": 69.9996,
        "meta_ra_of_asc_node": 207.9659,
        "meta_arg_of_pericenter": 271.0881,
        "meta_mean_anomaly": 234.2877,
        "meta_ephemeris_type": 0,
        "meta_classification_type": "U",
        "meta_norad_cat_id": 67098,
        "meta_element_set_no": 999,
        "meta_rev_at_epoch": 335,
        "meta_bstar": -0.01433,
        "meta_mean_motion_dot": -0.01676295,
        "meta_mean_motion_ddot": 0,
        "tle_line1": "1 67098U 25298Z   25361.50002315 -.01676295  00000+0 -14330-1 0  9998",
        "tle_line2": "2 67098  69.9996 207.9659 0003318 271.0881 234.2877 15.72175910  3352"
      },
      "geometry": {
        "type": "Point",
        "coordinates": [
          113.453419261339,
          -69.94699337798886
        ]
      }
    },
    {
      "type": "Feature",
      "properties": {
        "norad_id": 67099,
        "name": "STARLINK-36193",
        "group": "last-30-days",
        "lat": -51.60952038753181,
        "lon": 54.59374133186346,
        "alt_km": 375.9577229030647,
        "timestamp": "2025-12-27T18:38:02.207322+00:00",
        "meta_object_name": "STARLINK-36193",
        "meta_object_id": "2025-298AA",
        "meta_epoch": "2025-12-27T12:00:02.000160",
        "meta_mean_motion": 15.67078038,
        "meta_eccentricity": 0.0003334,
        "meta_inclination": 69.9997,
        "meta_ra_of_asc_node": 207.9976,
        "meta_arg_of_pericenter": 268.6289,
        "meta_mean_anomaly": 209.8075,
        "meta_ephemeris_type": 0,
        "meta_classification_type": "U",
        "meta_norad_cat_id": 67099,
        "meta_element_set_no": 999,
        "meta_rev_at_epoch": 329,
        "meta_bstar": -0.025908,
        "meta_mean_motion_dot": -0.02433952,
        "meta_mean_motion_ddot": 0,
        "tle_line1": "1 67099U 25298AA  25361.50002315 -.02433952  00000+0 -25908-1 0  9994",
        "tle_line2": "2 67099  69.9997 207.9976 0003334 268.6289 209.8075 15.67078038  3296"
      },
      "geometry": {
        "type": "Point",
        "coordinates": [
          54.59374133186346,
          -51.60952038753181
        ]
      }
    },
    {
      "type": "Feature",
      "properties": {
        "norad_id": 67100,
        "name": "STARLINK-36215",
        "group": "last-30-days",
        "lat": -69.55322340055073,
        "lon": 129.49248034092543,
        "alt_km": 359.9747216357882,
        "timestamp": "2025-12-27T18:38:02.207333+00:00",
        "meta_object_name": "STARLINK-36215",
        "meta_object_id": "2025-298AB",
        "meta_epoch": "2025-12-27T12:00:02.000160",
        "meta_mean_motion": 15.72186459,
        "meta_eccentricity": 0.0003331,
        "meta_inclination": 69.9992,
        "meta_ra_of_asc_node": 207.959,
        "meta_arg_of_pericenter": 271.3705,
        "meta_mean_anomaly": 239.5554,
        "meta_ephemeris_type": 0,
        "meta_classification_type": "U",
        "meta_norad_cat_id": 67100,
        "meta_element_set_no": 999,
        "meta_rev_at_epoch": 335,
        "meta_bstar": -0.014315,
        "meta_mean_motion_dot": -0.01675487,
        "meta_mean_motion_ddot": 0,
        "tle_line1": "1 67100U 25298AB  25361.50002315 -.01675487  00000+0 -14315-1 0  9997",
        "tle_line2": "2 67100  69.9992 207.9590 0003331 271.3705 239.5554 15.72186459  3359"
      },
      "geometry": {
        "type": "Point",
        "coordinates": [
          129.49248034092543,
          -69.55322340055073
        ]
      }
    },
    {
      "type": "Feature",
      "properties": {
        "norad_id": 67101,
        "name": "STARLINK-36200",
        "group": "last-30-days",
        "lat": -69.97928282397861,
        "lon": 118.75249319831255,
        "alt_km": 359.98282552814817,
        "timestamp": "2025-12-27T18:38:02.207343+00:00",
        "meta_object_name": "STARLINK-36200",
        "meta_object_id": "2025-298AC",
        "meta_epoch": "2025-12-27T12:00:02.000160",
        "meta_mean_motion": 15.72181581,
        "meta_eccentricity": 0.0003342,
        "meta_inclination": 69.9996,
        "meta_ra_of_asc_node": 207.964,
        "meta_arg_of_pericenter": 269.0078,
        "meta_mean_anomaly": 238.1796,
        "meta_ephemeris_type": 0,
        "meta_classification_type": "U",
        "meta_norad_cat_id": 67101,
        "meta_element_set_no": 999,
        "meta_rev_at_epoch": 335,
        "meta_bstar": -0.014318,
        "meta_mean_motion_dot": -0.01675435,
        "meta_mean_motion_ddot": 0,
        "tle_line1": "1 67101U 25298AC  25361.50002315 -.01675435  00000+0 -14318-1 0  9994",
        "tle_line2": "2 67101  69.9996 207.9640 0003342 269.0078 238.1796 15.72181581  3353"
      },
      "geometry": {
        "type": "Point",
        "coordinates": [
          118.75249319831255,
          -69.97928282397861
        ]
      }
    },
    {
      "type": "Feature",
      "properties": {
        "norad_id": 67102,
        "name": "STARLINK-36255",
        "group": "last-30-days",
        "lat": -7.193179546045181,
        "lon": 52.37190484119962,
        "alt_km": 348.2841903542594,
        "timestamp": "2025-12-27T18:38:02.207355+00:00",
        "meta_object_name": "STARLINK-36255",
        "meta_object_id": "2025-299A",
        "meta_epoch": "2025-12-27T12:00:02.000160",
        "meta_mean_motion": 15.74994512,
        "meta_eccentricity": 0.0001877,
        "meta_inclination": 42.9991,
        "meta_ra_of_asc_node": 226.2632,
        "meta_arg_of_pericenter": 266.5889,
        "meta_mean_anomaly": 155.473,
        "meta_ephemeris_type": 0,
        "meta_classification_type": "U",
        "meta_norad_cat_id": 67102,
        "meta_element_set_no": 999,
        "meta_rev_at_epoch": 318,
        "meta_bstar": -0.01432,
        "meta_mean_motion_dot": -0.01908446,
        "meta_mean_motion_ddot": 0,
        "tle_line1": "1 67102U 25299A   25361.50002315 -.01908446  00000+0 -14320-1 0  9990",
        "tle_line2": "2 67102  42.9991 226.2632 0001877 266.5889 155.4730 15.74994512  3186"
      },
      "geometry": {
        "type": "Point",
        "coordinates": [
          52.37190484119962,
          -7.193179546045181
        ]
      }
    },
    {
      "type": "Feature",
      "properties": {
        "norad_id": 67103,
        "name": "STARLINK-36256",
        "group": "last-30-days",
        "lat": -8.203402650171082,
        "lon": 53.48452436048743,
        "alt_km": 348.3650204145597,
        "timestamp": "2025-12-27T18:38:02.207368+00:00",
        "meta_object_name": "STARLINK-36256",
        "meta_object_id": "2025-299B",
        "meta_epoch": "2025-12-27T12:00:02.000160",
        "meta_mean_motion": 15.7502352,
        "meta_eccentricity": 0.0001811,
        "meta_inclination": 42.9989,
        "meta_ra_of_asc_node": 226.26,
        "meta_arg_of_pericenter": 268.392,
        "meta_mean_anomaly": 155.1434,
        "meta_ephemeris_type": 0,
        "meta_classification_type": "U",
        "meta_norad_cat_id": 67103,
        "meta_element_set_no": 999,
        "meta_rev_at_epoch": 318,
        "meta_bstar": -0.014427,
        "meta_mean_motion_dot": -0.01922807,
        "meta_mean_motion_ddot": 0,
        "tle_line1": "1 67103U 25299B   25361.50002315 -.01922807  00000+0 -14427-1 0  9996",
        "tle_line2": "2 67103  42.9989 226.2600 0001811 268.3920 155.1434 15.75023520  3184"
      },
      "geometry": {
        "type": "Point",
        "coordinates": [
          53.48452436048743,
          -8.203402650171082
        ]
      }
    },
    {
      "type": "Feature",
      "properties": {
        "norad_id": 67104,
        "name": "STARLINK-36258",
        "group": "last-30-days",
        "lat": -9.282776541302873,
        "lon": 54.68225189130499,
        "alt_km": 348.40818279857194,
        "timestamp": "2025-12-27T18:38:02.207378+00:00",
        "meta_object_name": "STARLINK-36258",
        "meta_object_id": "2025-299C",
        "meta_epoch": "2025-12-27T12:00:02.000160",
        "meta_mean_motion": 15.75032367,
        "meta_eccentricity": 0.0001842,
        "meta_inclination": 42.9991,
        "meta_ra_of_asc_node": 226.2555,
        "meta_arg_of_pericenter": 269.0267,
        "meta_mean_anomaly": 156.1011,
        "meta_ephemeris_type": 0,
        "meta_classification_type": "U",
        "meta_norad_cat_id": 67104,
        "meta_element_set_no": 999,
        "meta_rev_at_epoch": 318,
        "meta_bstar": -0.014305,
        "meta_mean_motion_dot": -0.01909479,
        "meta_mean_motion_ddot": 0,
        "tle_line1": "1 67104U 25299C   25361.50002315 -.01909479  00000+0 -14305-1 0  9992",
        "tle_line2": "2 67104  42.9991 226.2555 0001842 269.0267 156.1011 15.75032367  3184"
      },
      "geometry": {
        "type": "Point",
        "coordinates": [
          54.68225189130499,
          -9.282776541302873
        ]
      }
    }
  ]
}